CHINASAT 2A (ZX 2A)     
1 38352U 12028A   19193.88268780 -.00000304  00000-0  00000-0 0  9992
2 38352   0.0428 215.8991 0003103 212.5732 277.9938  1.00270988 25996
INTELSAT 19 (IS-19)     
1 38356U 12030A   19193.82441421 -.00000068  00000-0  00000+0 0  9994
2 38356   0.0148  74.6826 0002873  23.4966 295.0166  1.00271398 26135
ECHOSTAR 17             
1 38551U 12035A   19194.46438234 -.00000087  00000-0  00000+0 0  9996
2 38551   0.0162  49.2398 0002339  68.5405 233.3199  1.00273341 25753
METEOSAT-10 (MSG-3)     
1 38552U 12035B   19194.58279366  .00000051  00000-0  00000+0 0  9999
2 38552   1.0409  25.5931 0000880 143.3872 341.4087  1.00278574 25848
SES-5                   
1 38652U 12036A   19193.72054831  .00000022  00000-0  00000+0 0  9992
2 38652   0.0599 105.8422 0002171 357.3434  91.4925  1.00271095 25687
TIANLIAN 1-03           
1 38730U 12040A   19193.79536464  .00000113  00000-0  00000-0 0  9990
2 38730   0.0523 249.4665 0001288 129.7933 217.8472  1.00267325 25602
INTELSAT 20 (IS-20)     
1 38740U 12043A   19193.98938560 -.00000036  00000-0  00000+0 0  9992
2 38740   0.0030  49.4665 0001032 165.7845 140.0102  1.00272310 25453
HYLAS 2                 
1 38741U 12043B   19194.33799641  .00000143  00000-0  00000+0 0  9996
2 38741   0.0138 336.6894 0002023 130.5483 336.3661  1.00271861 25479
INTELSAT 21 (IS-21)     
1 38749U 12045A   19194.35403889 -.00000296  00000-0  00000+0 0  9994
2 38749   0.0227  44.7108 0002442  64.8132 250.8690  1.00270222 25265
ASTRA 2F                
1 38778U 12051A   19193.86873005  .00000138  00000-0  00000+0 0  9993
2 38778   0.0825 238.9705 0002261 289.7351 102.6427  1.00270636 24902
GSAT-10                 
1 38779U 12051B   19193.90082170 -.00000176  00000-0  00000+0 0  9997
2 38779   0.0907 270.3235 0003799 174.1508 253.3078  1.00273046 24915
INTELSAT 23 (IS-23)     
1 38867U 12057A   19194.42641779 -.00000296  00000-0  00000+0 0  9998
2 38867   0.0260  50.1083 0002094  66.0341 275.3965  1.00269246 24737
BEIDOU 16               
1 38953U 12059A   19193.80801384 -.00000189  00000-0  00000-0 0  9999
2 38953   1.9311  83.3125 0003037 220.8266   1.1342  1.00273433 24668
LUCH 5B                 
1 38977U 12061A   19194.43447042 -.00000135  00000-0  00000+0 0  9995
2 38977   5.0539  69.7716 0003830 351.2369  11.9676  1.00271830 24803
YAMAL 300K              
1 38978U 12061B   19193.74731581  .00000059  00000-0  00000+0 0  9997
2 38978   0.0257  43.5986 0001042   9.2635 329.4497  1.00270593 24492
STAR ONE C3             
1 38991U 12062A   19193.84814240 -.00000261  00000-0  00000+0 0  9994
2 38991   0.0210  84.7788 0002561  27.0691  48.9051  1.00270881 24477
EUTELSAT 21B            
1 38992U 12062B   19193.94758060  .00000118  00000-0  00000+0 0  9993
2 38992   0.0641  22.7462 0002578  95.7973 174.6933  1.00272355 24485
ECHOSTAR 16             
1 39008U 12065A   19193.99443701 -.00000293  00000-0  00000+0 0  9998
2 39008   0.0171  43.7379 0002196  67.4031 115.9263  1.00270652 24425
CHINASAT 12 (ZX 12)     
1 39017U 12067A   19193.86750628 -.00000218  00000-0  00000+0 0  9992
2 39017   0.0252  94.1694 0003404  15.4351 220.6447  1.00271737 24328
EUTELSAT 70B            
1 39020U 12069A   19193.87710470 -.00000055  00000-0  00000-0 0  9990
2 39020   0.0675  40.0156 0004143  95.7320 180.9592  1.00272300 24126
YAMAL 402               
1 39022U 12070A   19194.08934971  .00000075  00000-0  00000+0 0  9992
2 39022   0.0035 120.7917 0003099 352.3230 264.6099  1.00271150 24225
SKYNET 5D               
1 39034U 12075A   19193.96377782  .00000088  00000-0  00000-0 0  9992
2 39034   0.0705 356.4331 0003612 122.5120 211.3058  1.00271555 23789
MEXSAT 3                
1 39035U 12075B   19193.69664567 -.00000037  00000-0  00000+0 0  9997
2 39035   0.0180  97.9794 0002414  14.4376 313.8449  1.00271500 24095
TDRS 11                 
1 39070U 13004A   19194.18722841  .00000072  00000-0  00000+0 0  9992
2 39070   4.3297 329.8525 0003724  88.6664 125.3932  1.00265078 23609
AMAZONAS 3              
1 39078U 13006A   19194.19680660 -.00000294  00000-0  00000+0 0  9992
2 39078   0.0502 211.7647 0002943 286.4243 162.4580  1.00271375 23581
AZERSPACE 1             
1 39079U 13006B   19193.87221949  .00000121  00000-0  00000-0 0  9997
2 39079   0.0183  45.6699 0001960  80.3060 164.4478  1.00272151 23428
SBIRS GEO-2 (USA 241)   
1 39120U 13011A   19193.86715980  .00000112  00000-0  00000-0 0  9992
2 39120   2.5469 332.6193 0002317 135.6087 155.0092  1.00272168 23175
EUTELSAT 117 WEST A     
1 39122U 13012A   19194.46993672 -.00000024  00000-0  00000+0 0  9990
2 39122   0.0126  86.3097 0003022  23.1138 233.9911  1.00271506 23090
ANIK G1                 
1 39127U 13014A   19193.62633351 -.00000086  00000-0  00000+0 0  9997
2 39127   0.0434 276.3613 0000833 195.3116 296.7077  1.00271599 22863
CHINASAT 11 (ZX 11)     
1 39157U 13020A   19193.81080539 -.00000302  00000-0  00000-0 0  9994
2 39157   0.0277 236.1955 0001996  80.5927   3.4579  1.00267765 22769
EUTELSAT 7B             
1 39163U 13022A   19193.86445549  .00000036  00000-0  00000-0 0  9997
2 39163   0.0412  28.1896 0003784  22.1443 198.3049  1.00272876 22600
WGS F5 (USA 243)        
1 39168U 13024A   19194.42641779 -.00000296  00000-0  00000+0 0  9998
2 39168   0.0265  54.8447 0000569  79.2263 257.9338  1.00269355 22454
SES-6                   
1 39172U 13026A   19193.85503402 -.00000272  00000-0  00000-0 0  9996
2 39172   0.0430 304.5589 0002257 168.9551  84.2269  1.00271818 22346
IRNSS-1A                
1 39199U 13034A   19194.03325757  .00000057  00000-0  00000+0 0  9999
2 39199  30.1746 102.2941 0017509 185.1750  70.1361  1.00276013 22262
MUOS-2                  
1 39206U 13036A   19193.84325718 -.00000136  00000-0  00000+0 0  9994
2 39206   2.8607 347.0411 0052863   3.7690 143.1846  1.00270740 21926
ALPHASAT                
1 39215U 13038A   19193.86803216  .00000123  00000-0  00000+0 0  9997
2 39215   2.2468  23.0581 0002162  89.5402 155.1599  1.00271046 21887
INSAT-3D                
1 39216U 13038B   19194.63878448 -.00000167  00000-0  00000+0 0  9992
2 39216   0.0818 268.1194 0001793 215.6329 119.4832  1.00270789 21925
WGS F6 (USA 244)        
1 39222U 13041A   19194.36120115  .00000078  00000-0  00000+0 0  9994
2 39222   0.0250  50.5556 0000610  87.4663 147.7627  1.00268999 21689
EUTELSAT 25B            
1 39233U 13044A   19193.88061149  .00000131  00000-0  00000+0 0  9996
2 39233   0.0451   6.4849 0001817  93.2336 173.2285  1.00269609 21516
GSAT-7                  
1 39234U 13044B   19193.87780259 -.00000088  00000-0  00000-0 0  9999
2 39234   0.0221  59.0793 0004397 213.0766  48.3007  1.00270185 19959
AMOS-4                  
1 39237U 13045A   19193.87605787 -.00000004  00000-0  00000-0 0  9993
2 39237   0.0077  32.0667 0002493  70.5546 208.2211  1.00271487 21570
AEHF-3 (USA 246)        
1 39256U 13050A   19193.89341782 -.00000194  00000-0  00000-0 0  9994
2 39256   1.0976 315.8771 0004494  91.1256 357.2640  1.00269027 20294
ASTRA 2E                
1 39285U 13056A   19193.86873005  .00000139  00000-0  00000-0 0  9995
2 39285   0.0557 353.8522 0002582 129.8472 148.0100  1.00274796 21085
SIRIUS FM-6             
1 39360U 13058A   19193.69638396 -.00000029  00000-0  00000+0 0  9992
2 39360   0.0367  74.3722 0000598 153.3208 197.1343  1.00271287 20961
RADUGA-1M 3             
1 39375U 13062A   19194.53747227 -.00000050  00000-0  00000+0 0  9995
2 39375   0.0414 149.1058 0002088 341.7464  63.7785  1.00271881 20751
SES-8                   
1 39460U 13071A   19193.88198993 -.00000281  00000-0  00000-0 0  9994
2 39460   0.0530 256.1059 0003164 210.5474 236.3274  1.00271593 19125
INMARSAT 5-F1           
1 39476U 13073A   19194.59340925  .00000017  00000-0  00000+0 0  9991
2 39476   0.0030 108.0600 0000075 201.5180 257.8132  1.00271854 20556
TKSAT-1 (TUPAC KATARI)  
1 39481U 13075A   19193.63034635 -.00000206  00000-0  00000+0 0  9992
2 39481   0.0428 135.1401 0002997 318.7133 336.0843  1.00272230 20465
EXPRESS-AM5             
1 39487U 13077A   19193.89097522 -.00000292  00000-0  00000-0 0  9998
2 39487   0.0526 221.3864 0000807 157.7137  12.1489  1.00270594 20980
GSAT-14                 
1 39498U 14001A   19193.87788983 -.00000089  00000-0  00000-0 0  9998
2 39498   0.0309 284.1681 0000447 327.2601  69.0673  1.00271238 20044
THAICOM 6               
1 39500U 14002A   19193.87876219 -.00000133  00000-0  00000-0 0  9993
2 39500   0.0680 121.9651 0004963   1.5643 201.8104  1.00272560 20077
TDRS 12                 
1 39504U 14004A   19193.85494678 -.00000277  00000-0  00000-0 0  9991
2 39504   5.0822 336.7124 0002714 202.2618  18.3334  1.00268147 18898
ABS-2                   
1 39508U 14006A   19193.87797706 -.00000098  00000-0  00000-0 0  9998
2 39508   0.0335 284.5965 0003701 166.0402 230.8090  1.00271911 19900
ATHENA-FIDUS            
1 39509U 14006B   19194.08594750  .00000143  00000-0  00000+0 0  9996
2 39509   0.0158  71.5708 0001459  32.2328 255.6008  1.00269913 20121
TURKSAT 4A              
1 39522U 14007A   19193.90443553  .00000134  00000-0  00000-0 0  9997
2 39522   0.0752 270.8488 0001092 257.3892 129.8582  1.00275568 19607
EXPRESS-AT1             
1 39612U 14010A   19193.87422591  .00000067  00000-0  00000+0 0  9990
2 39612   0.0486 214.4280 0000802 290.2409 156.5070  1.00272785 19666
EXPRESS-AT2             
1 39613U 14010B   19193.89097522 -.00000293  00000-0  00000-0 0  9998
2 39613   0.0526 224.3665 0000564 253.5624 273.1406  1.00271795 19136
AMAZONAS 4A             
1 39616U 14011A   19194.43660568 -.00000264  00000-0  00000+0 0  9996
2 39616   0.0595  67.6012 0003680  40.5115 266.0693  1.00273596 19499
ASTRA 5B                
1 39617U 14011B   19193.90957817  .00000143  00000-0  00000+0 0  9999
2 39617   0.0418  66.2585 0003766  44.8395 178.3517  1.00274773 19483
